[
  {
    "id": 13636,
    "nume": "Stefan Voda",
    "diacritice": "\u015etefan Vod\u0103",
    "judet": "Calarasi",
    "auto": "CL",
    "zip": 917240,
    "populatie": 2270,
    "lat": 44.32593660000001,
    "lng": 27.3278348
  },
  {
    "id": 13637,
    "nume": "Stefan cel Mare",
    "diacritice": "\u015etefan cel Mare",
    "judet": "Calarasi",
    "auto": "CL",
    "zip": 77100,
    "populatie": 3236,
    "lat": 44.5,
    "lng": 26.25
  },
  {
    "id": 13638,
    "nume": "Tamadau Mare",
    "diacritice": "T\u0103m\u0103d\u0103u Mare",
    "judet": "Calarasi",
    "auto": "CL",
    "zip": 917250,
    "populatie": 1088,
    "lat": 44.4700685,
    "lng": 26.575944
  },
  {
    "id": 13639,
    "nume": "Calareti",
    "diacritice": "C\u0103l\u0103re\u0163i",
    "judet": "Calarasi",
    "auto": "CL",
    "zip": 917251,
    "populatie": 389,
    "lat": 44.4853026,
    "lng": 26.6089252
  },
  {
    "id": 13640,
    "nume": "Darvari",
    "diacritice": "D\u00e2rvari",
    "judet": "Calarasi",
    "auto": "CL",
    "zip": 917252,
    "populatie": 121,
    "lat": 44.4740782,
    "lng": 26.5376406
  },
  {
    "id": 13641,
    "nume": "Plumbuita",
    "diacritice": "Plumbuita",
    "judet": "Calarasi",
    "auto": "CL",
    "zip": 917253,
    "populatie": 563,
    "lat": 44.4517008,
    "lng": 26.575278
  },
  {
    "id": 13642,
    "nume": "Sacele",
    "diacritice": "S\u0103cele",
    "judet": "Calarasi",
    "auto": "CL",
    "zip": 917254,
    "populatie": 79,
    "lat": 44.438287,
    "lng": 26.5893985
  },
  {
    "id": 13643,
    "nume": "Seinoiu",
    "diacritice": "\u015eeinoiu",
    "judet": "Calarasi",
    "auto": "CL",
    "zip": 917256,
    "populatie": 288,
    "lat": 44.4414357,
    "lng": 26.5768109
  },
  {
    "id": 13644,
    "nume": "Tamadau Mic",
    "diacritice": "T\u0103m\u0103d\u0103u Mic",
    "judet": "Calarasi",
    "auto": "CL",
    "zip": 917257,
    "populatie": 112,
    "lat": 44.4560384,
    "lng": 26.5678117
  },
  {
    "id": 13645,
    "nume": "Ulmeni",
    "diacritice": "Ulmeni",
    "judet": "Calarasi",
    "auto": "CL",
    "zip": 917260,
    "populatie": 4962,
    "lat": 44.1485263,
    "lng": 26.7282729
  },
  {
    "id": 13646,
    "nume": "Ulmu",
    "diacritice": "Ulmu",
    "judet": "Calarasi",
    "auto": "CL",
    "zip": 917265,
    "populatie": 755,
    "lat": 44.2882874,
    "lng": 26.9444522
  },
  {
    "id": 13647,
    "nume": "Chirnogi (Ulmu)",
    "diacritice": "Chirnogi (Ulmu)",
    "judet": "Calarasi",
    "auto": "CL",
    "zip": 917266,
    "populatie": 192,
    "lat": 44.2713,
    "lng": 26.9193001
  },
  {
    "id": 13648,
    "nume": "Faurei",
    "diacritice": "F\u0103urei",
    "judet": "Calarasi",
    "auto": "CL",
    "zip": 917267,
    "populatie": 442,
    "lat": 44.2921714,
    "lng": 26.8951377
  },
  {
    "id": 13649,
    "nume": "Zimbru",
    "diacritice": "Zimbru",
    "judet": "Calarasi",
    "auto": "CL",
    "zip": 917268,
    "populatie": 172,
    "lat": 44.3164481,
    "lng": 26.9355788
  },
  {
    "id": 13650,
    "nume": "Unirea",
    "diacritice": "Unirea",
    "judet": "Calarasi",
    "auto": "CL",
    "zip": 917270,
    "populatie": 2177,
    "lat": 44.2591467,
    "lng": 27.5992008
  },
  {
    "id": 13651,
    "nume": "Oltina",
    "diacritice": "Oltina",
    "judet": "Calarasi",
    "auto": "CL",
    "zip": 917271,
    "populatie": 459,
    "lat": 44.2429902,
    "lng": 27.5663501
  },
  {
    "id": 13652,
    "nume": "Valea Argovei",
    "diacritice": "Valea Argovei",
    "judet": "Calarasi",
    "auto": "CL",
    "zip": 917275,
    "populatie": 1505,
    "lat": 44.3551894,
    "lng": 26.7874309
  },
  {
    "id": 13653,
    "nume": "Lunca",
    "diacritice": "Lunca",
    "judet": "Calarasi",
    "auto": "CL",
    "zip": 917276,
    "populatie": 0,
    "lat": 44.2085144,
    "lng": 27.3137439
  },
  {
    "id": 13654,
    "nume": "Ostrovu",
    "diacritice": "Ostrovu",
    "judet": "Calarasi",
    "auto": "CL",
    "zip": 917277,
    "populatie": 37,
    "lat": 44.3293926,
    "lng": 26.7869893
  },
  {
    "id": 13655,
    "nume": "Silistea",
    "diacritice": "Sili\u015ftea",
    "judet": "Calarasi",
    "auto": "CL",
    "zip": 917278,
    "populatie": 779,
    "lat": 44.3670477,
    "lng": 26.7599876
  },
  {
    "id": 13656,
    "nume": "Vladiceasca",
    "diacritice": "Vl\u0103diceasca",
    "judet": "Calarasi",
    "auto": "CL",
    "zip": 917279,
    "populatie": 316,
    "lat": 44.3497581,
    "lng": 26.7967258
  },
  {
    "id": 13657,
    "nume": "Vasilati",
    "diacritice": "Vasila\u0163i",
    "judet": "Calarasi",
    "auto": "CL",
    "zip": 917280,
    "populatie": 3590,
    "lat": 44.2885627,
    "lng": 26.4732076
  },
  {
    "id": 13658,
    "nume": "Nuci",
    "diacritice": "Nuci",
    "judet": "Calarasi",
    "auto": "CL",
    "zip": 917281,
    "populatie": 370,
    "lat": 44.2795709,
    "lng": 26.4153928
  },
  {
    "id": 13659,
    "nume": "Popesti",
    "diacritice": "Pope\u015fti",
    "judet": "Calarasi",
    "auto": "CL",
    "zip": 917282,
    "populatie": 429,
    "lat": 44.3031342,
    "lng": 26.3997275
  },
  {
    "id": 13660,
    "nume": "Galbinasi",
    "diacritice": "G\u0103lbina\u015fi",
    "judet": "Calarasi",
    "auto": "CL",
    "zip": 917285,
    "populatie": 3772,
    "lat": 44.315393,
    "lng": 26.4197255
  },
  {
    "id": 13661,
    "nume": "Valcelele",
    "diacritice": "V\u00e2lcelele",
    "judet": "Calarasi",
    "auto": "CL",
    "zip": 917290,
    "populatie": 1236,
    "lat": 44.3878091,
    "lng": 27.1450723
  },
  {
    "id": 13662,
    "nume": "Floroaica",
    "diacritice": "Floroaica",
    "judet": "Calarasi",
    "auto": "CL",
    "zip": 917291,
    "populatie": 627,
    "lat": 44.3592376,
    "lng": 27.1792888
  },
  {
    "id": 13663,
    "nume": "Vlad Tepes",
    "diacritice": "Vlad \u0162epe\u015f",
    "judet": "Calarasi",
    "auto": "CL",
    "zip": 917295,
    "populatie": 1544,
    "lat": 44.3695724,
    "lng": 27.0906714
  },
  {
    "id": 13664,
    "nume": "Mihai Viteazu",
    "diacritice": "Mihai Viteazu",
    "judet": "Calarasi",
    "auto": "CL",
    "zip": 917296,
    "populatie": 792,
    "lat": 44.3456037,
    "lng": 27.0780431
  },
  {
    "id": 13665,
    "nume": "Bora",
    "diacritice": "Bora",
    "judet": "Ialomita",
    "auto": "IL",
    "zip": 920001,
    "populatie": 1896,
    "lat": 44.5596987,
    "lng": 27.3881064
  },
  {
    "id": 13666,
    "nume": "Slobozia Noua",
    "diacritice": "Slobozia Nou\u0103",
    "judet": "Ialomita",
    "auto": "IL",
    "zip": 920002,
    "populatie": 2247,
    "lat": 44.6026397,
    "lng": 27.3905129
  },
  {
    "id": 13667,
    "nume": "Fetesti",
    "diacritice": "Fete\u015fti",
    "judet": "Ialomita",
    "auto": "IL",
    "zip": 925100,
    "populatie": 7650,
    "lat": 44.3687237,
    "lng": 27.8285646
  },
  {
    "id": 13668,
    "nume": "Buliga",
    "diacritice": "Buliga",
    "judet": "Ialomita",
    "auto": "IL",
    "zip": 925101,
    "populatie": 1009,
    "lat": 44.3576004,
    "lng": 27.7907019
  },
  {
    "id": 13669,
    "nume": "Vlasca",
    "diacritice": "Vla\u015fca",
    "judet": "Ialomita",
    "auto": "IL",
    "zip": 925102,
    "populatie": 2163,
    "lat": 44.3970279,
    "lng": 27.8484076
  },
  {
    "id": 13670,
    "nume": "Fetesti-Gara",
    "diacritice": "Fete\u015fti-Gar\u0103",
    "judet": "Ialomita",
    "auto": "IL",
    "zip": 925150,
    "populatie": 19395,
    "lat": 44.4219959,
    "lng": 27.8244572
  },
  {
    "id": 13671,
    "nume": "Tandarei",
    "diacritice": "\u0162\u0103nd\u0103rei",
    "judet": "Ialomita",
    "auto": "IL",
    "zip": 925200,
    "populatie": 13219,
    "lat": 44.64887179999999,
    "lng": 27.6438672
  },
  {
    "id": 13672,
    "nume": "Urziceni",
    "diacritice": "Urziceni",
    "judet": "Ialomita",
    "auto": "IL",
    "zip": 925300,
    "populatie": 15308,
    "lat": 44.718056,
    "lng": 26.645278
  },
  {
    "id": 13673,
    "nume": "Adancata",
    "diacritice": "Ad\u00e2ncata",
    "judet": "Ialomita",
    "auto": "IL",
    "zip": 927005,
    "populatie": 1785,
    "lat": 44.766667,
    "lng": 26.4333329
  },
  {
    "id": 13674,
    "nume": "Patru Frati",
    "diacritice": "Patru Fra\u0163i",
    "judet": "Ialomita",
    "auto": "IL",
    "zip": 927006,
    "populatie": 938,
    "lat": 44.7374342,
    "lng": 26.4679324
  },
  {
    "id": 13675,
    "nume": "Albesti",
    "diacritice": "Albe\u015fti",
    "judet": "Ialomita",
    "auto": "IL",
    "zip": 927010,
    "populatie": 675,
    "lat": 44.5395194,
    "lng": 27.1335293
  },
  {
    "id": 13676,
    "nume": "Bataluri",
    "diacritice": "Bataluri",
    "judet": "Ialomita",
    "auto": "IL",
    "zip": 927011,
    "populatie": 23,
    "lat": 44.5273793,
    "lng": 27.1469875
  },
  {
    "id": 13677,
    "nume": "Buesti",
    "diacritice": "Bue\u015fti",
    "judet": "Ialomita",
    "auto": "IL",
    "zip": 927012,
    "populatie": 1074,
    "lat": 44.54495559999999,
    "lng": 27.1849682
  },
  {
    "id": 13678,
    "nume": "Marsilieni",
    "diacritice": "Marsilieni",
    "judet": "Ialomita",
    "auto": "IL",
    "zip": 927013,
    "populatie": 590,
    "lat": 44.5397302,
    "lng": 27.0939036
  },
  {
    "id": 13679,
    "nume": "Alexeni",
    "diacritice": "Alexeni",
    "judet": "Ialomita",
    "auto": "IL",
    "zip": 927015,
    "populatie": 2410,
    "lat": 44.6811531,
    "lng": 26.712682
  },
  {
    "id": 13680,
    "nume": "Amara",
    "diacritice": "Amara",
    "judet": "Ialomita",
    "auto": "IL",
    "zip": 927020,
    "populatie": 7338,
    "lat": 44.6167066,
    "lng": 27.3168665
  },
  {
    "id": 13681,
    "nume": "Amara Noua",
    "diacritice": "Amara Nou\u0103",
    "judet": "Ialomita",
    "auto": "IL",
    "zip": 927021,
    "populatie": 7,
    "lat": 44.6132383,
    "lng": 27.3423386
  },
  {
    "id": 13682,
    "nume": "Andrasesti",
    "diacritice": "Andr\u0103\u015fe\u015fti",
    "judet": "Ialomita",
    "auto": "IL",
    "zip": 927025,
    "populatie": 1829,
    "lat": 44.5780548,
    "lng": 27.143129
  },
  {
    "id": 13683,
    "nume": "Orboesti",
    "diacritice": "Orboe\u015fti",
    "judet": "Ialomita",
    "auto": "IL",
    "zip": 927026,
    "populatie": 383,
    "lat": 44.5790794,
    "lng": 27.1003038
  },
  {
    "id": 13684,
    "nume": "Armasesti",
    "diacritice": "Arm\u0103\u015fe\u015fti",
    "judet": "Ialomita",
    "auto": "IL",
    "zip": 927030,
    "populatie": 608,
    "lat": 44.7473197,
    "lng": 26.5827467
  },
  {
    "id": 13685,
    "nume": "Barbulesti",
    "diacritice": "B\u0103rbule\u015fti",
    "judet": "Ialomita",
    "auto": "IL",
    "zip": 927031,
    "populatie": 5902,
    "lat": 44.7256495,
    "lng": 26.5749353
  },
  {
    "id": 13686,
    "nume": "Malu Rosu",
    "diacritice": "Malu Ro\u015fu",
    "judet": "Ialomita",
    "auto": "IL",
    "zip": 927032,
    "populatie": 1524,
    "lat": 44.7805284,
    "lng": 26.5743301
  },
  {
    "id": 13687,
    "nume": "Nenisori",
    "diacritice": "Neni\u015fori",
    "judet": "Ialomita",
    "auto": "IL",
    "zip": 927033,
    "populatie": 236,
    "lat": 44.7584515,
    "lng": 26.578025
  },
  {
    "id": 13688,
    "nume": "Axintele",
    "diacritice": "Axintele",
    "judet": "Ialomita",
    "auto": "IL",
    "zip": 927035,
    "populatie": 1739,
    "lat": 44.6,
    "lng": 26.783333
  },
  {
    "id": 13689,
    "nume": "Barbatescu",
    "diacritice": "B\u0103rb\u0103tescu",
    "judet": "Ialomita",
    "auto": "IL",
    "zip": 927036,
    "populatie": 210,
    "lat": 44.61103050000001,
    "lng": 26.7987007
  },
  {
    "id": 13690,
    "nume": "Horia",
    "diacritice": "Horia",
    "judet": "Ialomita",
    "auto": "IL",
    "zip": 927037,
    "populatie": 708,
    "lat": 44.5399458,
    "lng": 26.8002169
  },
  {
    "id": 13691,
    "nume": "Balaciu",
    "diacritice": "Balaciu",
    "judet": "Ialomita",
    "auto": "IL",
    "zip": 927040,
    "populatie": 1069,
    "lat": 44.616667,
    "lng": 26.883333
  },
  {
    "id": 13692,
    "nume": "Copuzu",
    "diacritice": "Copuzu",
    "judet": "Ialomita",
    "auto": "IL",
    "zip": 927041,
    "populatie": 374,
    "lat": 44.6032684,
    "lng": 26.8980574
  },
  {
    "id": 13693,
    "nume": "Crasanii de Jos",
    "diacritice": "Cr\u0103sanii de Jos",
    "judet": "Ialomita",
    "auto": "IL",
    "zip": 927042,
    "populatie": 319,
    "lat": 44.600547,
    "lng": 26.8794034
  },
  {
    "id": 13694,
    "nume": "Crasanii de Sus",
    "diacritice": "Cr\u0103sanii de Sus",
    "judet": "Ialomita",
    "auto": "IL",
    "zip": 927043,
    "populatie": 98,
    "lat": 44.5993396,
    "lng": 26.8474021
  },
  {
    "id": 13695,
    "nume": "Sarateni",
    "diacritice": "S\u0103r\u0103\u0163eni",
    "judet": "Ialomita",
    "auto": "IL",
    "zip": 927044,
    "populatie": 1290,
    "lat": 44.6362691,
    "lng": 26.9295763
  },
  {
    "id": 13696,
    "nume": "Barcanesti",
    "diacritice": "B\u0103rc\u0103ne\u015fti",
    "judet": "Ialomita",
    "auto": "IL",
    "zip": 927045,
    "populatie": 1876,
    "lat": 44.6333,
    "lng": 26.65
  },
  {
    "id": 13697,
    "nume": "Condeesti",
    "diacritice": "Condee\u015fti",
    "judet": "Ialomita",
    "auto": "IL",
    "zip": 927046,
    "populatie": 2019,
    "lat": 44.6244358,
    "lng": 26.6913019
  },
  {
    "id": 13698,
    "nume": "Bordusani",
    "diacritice": "Bordu\u015fani",
    "judet": "Ialomita",
    "auto": "IL",
    "zip": 927050,
    "populatie": 3309,
    "lat": 44.4781316,
    "lng": 27.9039837
  },
  {
    "id": 13699,
    "nume": "Cegani",
    "diacritice": "Cegani",
    "judet": "Ialomita",
    "auto": "IL",
    "zip": 927051,
    "populatie": 1477,
    "lat": 44.46312210000001,
    "lng": 27.9042329
  },
  {
    "id": 13700,
    "nume": "Brazii",
    "diacritice": "Brazii",
    "judet": "Ialomita",
    "auto": "IL",
    "zip": 927055,
    "populatie": 1006,
    "lat": 44.7642054,
    "lng": 26.3601339
  },
  {
    "id": 13701,
    "nume": "Maia",
    "diacritice": "Maia",
    "judet": "Ialomita",
    "auto": "IL",
    "zip": 927056,
    "populatie": 1847,
    "lat": 44.7396606,
    "lng": 26.3989919
  },
  {
    "id": 13702,
    "nume": "Movileanca",
    "diacritice": "Movileanca",
    "judet": "Ialomita",
    "auto": "IL",
    "zip": 927057,
    "populatie": 36,
    "lat": 44.7838172,
    "lng": 26.3198165
  },
  {
    "id": 13703,
    "nume": "Rasimnicea",
    "diacritice": "R\u0103simnicea",
    "judet": "Ialomita",
    "auto": "IL",
    "zip": 927058,
    "populatie": 316,
    "lat": 44.7758715,
    "lng": 26.3381167
  },
  {
    "id": 13704,
    "nume": "Bucu",
    "diacritice": "Bucu",
    "judet": "Ialomita",
    "auto": "IL",
    "zip": 927060,
    "populatie": 2323,
    "lat": 44.6064839,
    "lng": 27.4908717
  },
  {
    "id": 13705,
    "nume": "Ograda",
    "diacritice": "Ograda",
    "judet": "Ialomita",
    "auto": "IL",
    "zip": 927061,
    "populatie": 2803,
    "lat": 44.6134693,
    "lng": 27.5645234
  },
  {
    "id": 13706,
    "nume": "Cazanesti",
    "diacritice": "C\u0103z\u0103ne\u015fti",
    "judet": "Ialomita",
    "auto": "IL",
    "zip": 927065,
    "populatie": 3271,
    "lat": 44.6236851,
    "lng": 27.0083599
  },
  {
    "id": 13707,
    "nume": "Ciocarlia",
    "diacritice": "Cioc\u00e2rlia",
    "judet": "Ialomita",
    "auto": "IL",
    "zip": 927070,
    "populatie": 562,
    "lat": 44.8004397,
    "lng": 26.6737392
  },
  {
    "id": 13708,
    "nume": "Cotorca",
    "diacritice": "Cotorca",
    "judet": "Ialomita",
    "auto": "IL",
    "zip": 927071,
    "populatie": 244,
    "lat": 44.7775606,
    "lng": 26.6606958
  },
  {
    "id": 13709,
    "nume": "Ciochina",
    "diacritice": "Ciochina",
    "judet": "Ialomita",
    "auto": "IL",
    "zip": 927075,
    "populatie": 1518,
    "lat": 44.59294,
    "lng": 27.0606646
  },
  {
    "id": 13710,
    "nume": "Borduselu",
    "diacritice": "Bordu\u015felu",
    "judet": "Ialomita",
    "auto": "IL",
    "zip": 927076,
    "populatie": 858,
    "lat": 44.5565745,
    "lng": 27.0474148
  },
  {
    "id": 13711,
    "nume": "Orezu",
    "diacritice": "Orezu",
    "judet": "Ialomita",
    "auto": "IL",
    "zip": 927077,
    "populatie": 729,
    "lat": 44.5831196,
    "lng": 26.9968789
  },
  {
    "id": 13712,
    "nume": "Piersica",
    "diacritice": "Piersica",
    "judet": "Ialomita",
    "auto": "IL",
    "zip": 927078,
    "populatie": 112,
    "lat": 44.5652948,
    "lng": 26.9986087
  },
  {
    "id": 13713,
    "nume": "Ciulnita",
    "diacritice": "Ciulni\u0163a",
    "judet": "Ialomita",
    "auto": "IL",
    "zip": 927080,
    "populatie": 1046,
    "lat": 44.5388559,
    "lng": 27.3485058
  },
  {
    "id": 13714,
    "nume": "Ion Ghica",
    "diacritice": "Ion Ghica",
    "judet": "Ialomita",
    "auto": "IL",
    "zip": 927081,
    "populatie": 397,
    "lat": 44.5318876,
    "lng": 27.3033063
  },
  {
    "id": 13715,
    "nume": "Ivanesti",
    "diacritice": "Iv\u0103ne\u015fti",
    "judet": "Ialomita",
    "auto": "IL",
    "zip": 927082,
    "populatie": 197,
    "lat": 44.53562429999999,
    "lng": 27.2791841
  },
  {
    "id": 13716,
    "nume": "Poiana",
    "diacritice": "Poiana",
    "judet": "Ialomita",
    "auto": "IL",
    "zip": 927083,
    "populatie": 760,
    "lat": 44.54663559999999,
    "lng": 27.260567
  },
  {
    "id": 13717,
    "nume": "Cocora",
    "diacritice": "Cocora",
    "judet": "Ialomita",
    "auto": "IL",
    "zip": 927085,
    "populatie": 2058,
    "lat": 44.7414168,
    "lng": 27.0446526
  },
  {
    "id": 13718,
    "nume": "Colelia",
    "diacritice": "Colelia",
    "judet": "Ialomita",
    "auto": "IL",
    "zip": 927086,
    "populatie": 1212,
    "lat": 44.7606615,
    "lng": 27.0083077
  },
  {
    "id": 13719,
    "nume": "Cosambesti",
    "diacritice": "Cos\u00e2mbe\u015fti",
    "judet": "Ialomita",
    "auto": "IL",
    "zip": 927090,
    "populatie": 976,
    "lat": 44.5610654,
    "lng": 27.4356242
  },
  {
    "id": 13720,
    "nume": "Gimbasani",
    "diacritice": "Gimb\u0103\u015fani",
    "judet": "Ialomita",
    "auto": "IL",
    "zip": 927091,
    "populatie": 926,
    "lat": 44.5606994,
    "lng": 27.4753643
  },
  {
    "id": 13721,
    "nume": "Marculesti",
    "diacritice": "M\u0103rcule\u015fti",
    "judet": "Ialomita",
    "auto": "IL",
    "zip": 927092,
    "populatie": 1505,
    "lat": 44.5619606,
    "lng": 27.508796
  },
  {
    "id": 13722,
    "nume": "Cosereni",
    "diacritice": "Co\u015fereni",
    "judet": "Ialomita",
    "auto": "IL",
    "zip": 927095,
    "populatie": 4570,
    "lat": 44.6851174,
    "lng": 26.5581562
  },
  {
    "id": 13723,
    "nume": "Boranesti",
    "diacritice": "Bor\u0103ne\u015fti",
    "judet": "Ialomita",
    "auto": "IL",
    "zip": 927096,
    "populatie": 2023,
    "lat": 44.6645046,
    "lng": 26.6008505
  },
  {
    "id": 13724,
    "nume": "Sintesti",
    "diacritice": "Sinte\u015fti",
    "judet": "Ialomita",
    "auto": "IL",
    "zip": 927097,
    "populatie": 431,
    "lat": 44.66310499999999,
    "lng": 26.5816408
  },
  {
    "id": 13725,
    "nume": "Dragoesti",
    "diacritice": "Dr\u0103goe\u015fti",
    "judet": "Ialomita",
    "auto": "IL",
    "zip": 927100,
    "populatie": 896,
    "lat": 44.5697005,
    "lng": 26.5336856
  },
  {
    "id": 13726,
    "nume": "Chiroiu-Pamanteni",
    "diacritice": "Chiroiu-P\u0103m\u00e2nteni",
    "judet": "Ialomita",
    "auto": "IL",
    "zip": 927101,
    "populatie": 33,
    "lat": 44.5979833,
    "lng": 26.5047243
  },
  {
    "id": 13727,
    "nume": "Chiroiu-Satu Nou",
    "diacritice": "Chiroiu-Satu Nou",
    "judet": "Ialomita",
    "auto": "IL",
    "zip": 927102,
    "populatie": 39,
    "lat": 44.5942973,
    "lng": 26.492175
  },
  {
    "id": 13728,
    "nume": "Chiroiu-Ungureni",
    "diacritice": "Chiroiu-Ungureni",
    "judet": "Ialomita",
    "auto": "IL",
    "zip": 927103,
    "populatie": 42,
    "lat": 44.5920301,
    "lng": 26.4987871
  },
  {
    "id": 13729,
    "nume": "Valea Bisericii",
    "diacritice": "Valea Bisericii",
    "judet": "Ialomita",
    "auto": "IL",
    "zip": 927104,
    "populatie": 72,
    "lat": 44.589739,
    "lng": 26.5675251
  },
  {
    "id": 13730,
    "nume": "Dridu",
    "diacritice": "Dridu",
    "judet": "Ialomita",
    "auto": "IL",
    "zip": 927105,
    "populatie": 3112,
    "lat": 44.6869604,
    "lng": 26.4611572
  },
  {
    "id": 13731,
    "nume": "Dridu-Snagov",
    "diacritice": "Dridu-Snagov",
    "judet": "Ialomita",
    "auto": "IL",
    "zip": 927106,
    "populatie": 439,
    "lat": 44.7145549,
    "lng": 26.45504
  },
  {
    "id": 13732,
    "nume": "Moldoveni",
    "diacritice": "Moldoveni",
    "judet": "Ialomita",
    "auto": "IL",
    "zip": 927107,
    "populatie": 1247,
    "lat": 44.7152576,
    "lng": 26.5170366
  },
  {
    "id": 13733,
    "nume": "Facaeni",
    "diacritice": "F\u0103c\u0103eni",
    "judet": "Ialomita",
    "auto": "IL",
    "zip": 927110,
    "populatie": 4795,
    "lat": 44.5554655,
    "lng": 27.9414906
  },
  {
    "id": 13734,
    "nume": "Progresu",
    "diacritice": "Progresu",
    "judet": "Ialomita",
    "auto": "IL",
    "zip": 927111,
    "populatie": 643,
    "lat": 44.580841,
    "lng": 27.8692186
  },
  {
    "id": 13735,
    "nume": "Fierbinti-Targ",
    "diacritice": "Fierbin\u0163i-T\u00e2rg",
    "judet": "Ialomita",
    "auto": "IL",
    "zip": 927115,
    "populatie": 1311,
    "lat": 44.6800064,
    "lng": 26.3792609
  },
  {
    "id": 13736,
    "nume": "Fierbintii de Jos",
    "diacritice": "Fierbin\u0163ii de Jos",
    "judet": "Ialomita",
    "auto": "IL",
    "zip": 927116,
    "populatie": 1214,
    "lat": 44.694548,
    "lng": 26.3956633
  },
  {
    "id": 13737,
    "nume": "Fierbintii de Sus",
    "diacritice": "Fierbin\u0163ii de Sus",
    "judet": "Ialomita",
    "auto": "IL",
    "zip": 927117,
    "populatie": 2059,
    "lat": 44.6900813,
    "lng": 26.3961613
  },
  {
    "id": 13738,
    "nume": "Grecii de Jos",
    "diacritice": "Grecii de Jos",
    "judet": "Ialomita",
    "auto": "IL",
    "zip": 927118,
    "populatie": 385,
    "lat": 44.6713758,
    "lng": 26.349026
  },
  {
    "id": 13756,
    "nume": "Milosesti",
    "diacritice": "Milo\u015fe\u015fti",
    "judet": "Ialomita",
    "auto": "IL",
    "zip": 927170,
    "populatie": 1853,
    "lat": 44.73400729999999,
    "lng": 27.2293221
  },
  {
    "id": 13757,
    "nume": "Nicolesti",
    "diacritice": "Nicole\u015fti",
    "judet": "Ialomita",
    "auto": "IL",
    "zip": 927171,
    "populatie": 455,
    "lat": 44.76017119999999,
    "lng": 27.2100927
  },
  {
    "id": 13758,
    "nume": "Tovarasia",
    "diacritice": "Tov\u0103r\u0103\u015fia",
    "judet": "Ialomita",
    "auto": "IL",
    "zip": 927172,
    "populatie": 427,
    "lat": 44.7819362,
    "lng": 27.1642379
  },
  {
    "id": 13759,
    "nume": "Movila",
    "diacritice": "Movila",
    "judet": "Ialomita",
    "auto": "IL",
    "zip": 927175,
    "populatie": 1842,
    "lat": 44.5375216,
    "lng": 27.7165528
  },
  {
    "id": 13760,
    "nume": "Baraganu",
    "diacritice": "B\u0103r\u0103ganu",
    "judet": "Ialomita",
    "auto": "IL",
    "zip": 927176,
    "populatie": 0,
    "lat": 44.41999200000001,
    "lng": 27.696825
  },
  {
    "id": 13761,
    "nume": "Movilita",
    "diacritice": "Movili\u0163a",
    "judet": "Ialomita",
    "auto": "IL",
    "zip": 927180,
    "populatie": 2542,
    "lat": 44.6437444,
    "lng": 26.4852403
  },
  {
    "id": 13762,
    "nume": "Bitina-Pamanteni",
    "diacritice": "Bi\u0163ina-P\u0103m\u00e2nteni",
    "judet": "Ialomita",
    "auto": "IL",
    "zip": 927181,
    "populatie": 96,
    "lat": 44.60862640000001,
    "lng": 26.4719511
  },
  {
    "id": 13763,
    "nume": "Bitina-Ungureni",
    "diacritice": "Bi\u0163ina-Ungureni",
    "judet": "Ialomita",
    "auto": "IL",
    "zip": 927182,
    "populatie": 121,
    "lat": 44.6042808,
    "lng": 26.4794515
  },
  {
    "id": 13764,
    "nume": "Rosiori",
    "diacritice": "Ro\u015fiori",
    "judet": "Ialomita",
    "auto": "IL",
    "zip": 927183,
    "populatie": 2174,
    "lat": 44.61209239999999,
    "lng": 26.532618
  },
  {
    "id": 13765,
    "nume": "Munteni-Buzau",
    "diacritice": "Munteni-Buz\u0103u",
    "judet": "Ialomita",
    "auto": "IL",
    "zip": 927185,
    "populatie": 3428,
    "lat": 44.6412504,
    "lng": 26.9784445
  },
  {
    "id": 13766,
    "nume": "Perieti",
    "diacritice": "Perie\u0163i",
    "judet": "Ialomita",
    "auto": "IL",
    "zip": 927190,
    "populatie": 1259,
    "lat": 44.57557120000001,
    "lng": 27.2544119
  },
  {
    "id": 13767,
    "nume": "Fundata",
    "diacritice": "Fundata",
    "judet": "Ialomita",
    "auto": "IL",
    "zip": 927191,
    "populatie": 447,
    "lat": 44.58228219999999,
    "lng": 27.2573282
  },
  {
    "id": 13768,
    "nume": "Misleanu",
    "diacritice": "Misleanu",
    "judet": "Ialomita",
    "auto": "IL",
    "zip": 927192,
    "populatie": 823,
    "lat": 44.57305880000001,
    "lng": 27.2158546
  },
  {
    "id": 13769,
    "nume": "Paltinisu",
    "diacritice": "P\u0103ltini\u015fu",
    "judet": "Ialomita",
    "auto": "IL",
    "zip": 927193,
    "populatie": 655,
    "lat": 44.5675227,
    "lng": 27.3001057
  },
  {
    "id": 13770,
    "nume": "Stejaru",
    "diacritice": "Stejaru",
    "judet": "Ialomita",
    "auto": "IL",
    "zip": 927194,
    "populatie": 402,
    "lat": 44.5668538,
    "lng": 27.2834142
  },
  {
    "id": 13771,
    "nume": "Reviga",
    "diacritice": "Reviga",
    "judet": "Ialomita",
    "auto": "IL",
    "zip": 927195,
    "populatie": 1130,
    "lat": 44.7117278,
    "lng": 27.1022926
  },
  {
    "id": 13772,
    "nume": "Crunti",
    "diacritice": "Crun\u0163i",
    "judet": "Ialomita",
    "auto": "IL",
    "zip": 927196,
    "populatie": 517,
    "lat": 44.6608957,
    "lng": 27.1062272
  },
  {
    "id": 13773,
    "nume": "Mircea cel Batran",
    "diacritice": "Mircea cel B\u0103tr\u00e2n",
    "judet": "Ialomita",
    "auto": "IL",
    "zip": 927197,
    "populatie": 192,
    "lat": 44.6998939,
    "lng": 27.1241785
  },
  {
    "id": 13774,
    "nume": "Rovine",
    "diacritice": "Rovine",
    "judet": "Ialomita",
    "auto": "IL",
    "zip": 927198,
    "populatie": 903,
    "lat": 44.694306,
    "lng": 27.0924614
  },
  {
    "id": 13775,
    "nume": "Salcioara",
    "diacritice": "S\u0103lcioara",
    "judet": "Ialomita",
    "auto": "IL",
    "zip": 927200,
    "populatie": 1211,
    "lat": 44.5503192,
    "lng": 26.9257392
  },
  {
    "id": 13776,
    "nume": "Rasi",
    "diacritice": "Ra\u015fi",
    "judet": "Ialomita",
    "auto": "IL",
    "zip": 927201,
    "populatie": 1125,
    "lat": 44.5374693,
    "lng": 26.9226116
  },
  {
    "id": 13777,
    "nume": "Saveni",
    "diacritice": "S\u0103veni",
    "judet": "Ialomita",
    "auto": "IL",
    "zip": 927205,
    "populatie": 2857,
    "lat": 44.5418359,
    "lng": 27.6526157
  },
  {
    "id": 13778,
    "nume": "Fratilesti",
    "diacritice": "Fr\u0103\u0163ile\u015fti",
    "judet": "Ialomita",
    "auto": "IL",
    "zip": 927206,
    "populatie": 419,
    "lat": 44.615829,
    "lng": 27.6032333
  },
  {
    "id": 13779,
    "nume": "Lacusteni",
    "diacritice": "L\u0103custeni",
    "judet": "Ialomita",
    "auto": "IL",
    "zip": 927207,
    "populatie": 911,
    "lat": 44.6079253,
    "lng": 27.671543
  },
  {
    "id": 13780,
    "nume": "Platonesti",
    "diacritice": "Platone\u015fti",
    "judet": "Ialomita",
    "auto": "IL",
    "zip": 927208,
    "populatie": 887,
    "lat": 44.6088165,
    "lng": 27.6966832
  },
  {
    "id": 13781,
    "nume": "Scanteia",
    "diacritice": "Sc\u00e2nteia",
    "judet": "Ialomita",
    "auto": "IL",
    "zip": 927210,
    "populatie": 2773,
    "lat": 44.7375207,
    "lng": 27.4379841
  },
  {
    "id": 13782,
    "nume": "Iazu",
    "diacritice": "Iazu",
    "judet": "Ialomita",
    "auto": "IL",
    "zip": 927211,
    "populatie": 1078,
    "lat": 44.7307212,
    "lng": 27.4208576
  },
  {
    "id": 13783,
    "nume": "Sfantu Gheorghe",
    "diacritice": "Sf\u00e2ntu Gheorghe",
    "judet": "Ialomita",
    "auto": "IL",
    "zip": 927215,
    "populatie": 865,
    "lat": 44.6789472,
    "lng": 26.8495141
  },
  {
    "id": 13784,
    "nume": "Butoiu",
    "diacritice": "Butoiu",
    "judet": "Ialomita",
    "auto": "IL",
    "zip": 927216,
    "populatie": 752,
    "lat": 44.6492106,
    "lng": 26.8392934
  },
  {
    "id": 13785,
    "nume": "Malu",
    "diacritice": "Malu",
    "judet": "Ialomita",
    "auto": "IL",
    "zip": 927217,
    "populatie": 421,
    "lat": 44.6498429,
    "lng": 26.822051
  },
  {
    "id": 13786,
    "nume": "Sinesti",
    "diacritice": "Sine\u015fti",
    "judet": "Ialomita",
    "auto": "IL",
    "zip": 927220,
    "populatie": 1329,
    "lat": 44.56502649999999,
    "lng": 26.3833243
  },
  {
    "id": 13787,
    "nume": "Boteni",
    "diacritice": "Boteni",
    "judet": "Ialomita",
    "auto": "IL",
    "zip": 927221,
    "populatie": 46,
    "lat": 44.5696585,
    "lng": 26.4518716
  },
  {
    "id": 13788,
    "nume": "Catrunesti",
    "diacritice": "C\u0103trune\u015fti",
    "judet": "Ialomita",
    "auto": "IL",
    "zip": 927222,
    "populatie": 660,
    "lat": 44.5573232,
    "lng": 26.3894426
  },
  {
    "id": 13789,
    "nume": "Hagiesti",
    "diacritice": "Hagie\u015fti",
    "judet": "Ialomita",
    "auto": "IL",
    "zip": 927223,
    "populatie": 163,
    "lat": 44.5429888,
    "lng": 26.4322292
  },
  {
    "id": 13790,
    "nume": "Lilieci",
    "diacritice": "Lilieci",
    "judet": "Ialomita",
    "auto": "IL",
    "zip": 927224,
    "populatie": 728,
    "lat": 44.5529319,
    "lng": 26.377223
  },
  {
    "id": 13791,
    "nume": "Livedea",
    "diacritice": "Livedea",
    "judet": "Ialomita",
    "auto": "IL",
    "zip": 927226,
    "populatie": 46,
    "lat": 44.58752519999999,
    "lng": 26.4273115
  },
  {
    "id": 13792,
    "nume": "Stelnica",
    "diacritice": "Stelnica",
    "judet": "Ialomita",
    "auto": "IL",
    "zip": 927230,
    "populatie": 1393,
    "lat": 44.4139642,
    "lng": 27.8784013
  },
  {
    "id": 13793,
    "nume": "Maltezi",
    "diacritice": "Maltezi",
    "judet": "Ialomita",
    "auto": "IL",
    "zip": 927231,
    "populatie": 381,
    "lat": 44.4217373,
    "lng": 27.8866283
  },
  {
    "id": 13794,
    "nume": "Retezatu",
    "diacritice": "Retezatu",
    "judet": "Ialomita",
    "auto": "IL",
    "zip": 927232,
    "populatie": 0,
    "lat": 44.603133,
    "lng": 27.3789914
  },
  {
    "id": 13795,
    "nume": "Suditi",
    "diacritice": "Sudi\u0163i",
    "judet": "Ialomita",
    "auto": "IL",
    "zip": 927235,
    "populatie": 1710,
    "lat": 44.5171704,
    "lng": 27.5946232
  },
  {
    "id": 13796,
    "nume": "Gura Vaii",
    "diacritice": "Gura V\u0103ii",
    "judet": "Ialomita",
    "auto": "IL",
    "zip": 927236,
    "populatie": 316,
    "lat": 44.5702681,
    "lng": 27.5676959
  },
  {
    "id": 13797,
    "nume": "Valea Ciorii",
    "diacritice": "Valea Ciorii",
    "judet": "Ialomita",
    "auto": "IL",
    "zip": 927240,
    "populatie": 1101,
    "lat": 44.7161815,
    "lng": 27.5488094
  },
  {
    "id": 13798,
    "nume": "Bucsa",
    "diacritice": "Buc\u015fa",
    "judet": "Ialomita",
    "auto": "IL",
    "zip": 927241,
    "populatie": 147,
    "lat": 44.7166427,
    "lng": 27.5230718
  },
  {
    "id": 13799,
    "nume": "Dumitresti",
    "diacritice": "Dumitre\u015fti",
    "judet": "Ialomita",
    "auto": "IL",
    "zip": 927242,
    "populatie": 148,
    "lat": 44.7160155,
    "lng": 27.5062904
  },
  {
    "id": 13800,
    "nume": "Murgeanca",
    "diacritice": "Murgeanca",
    "judet": "Ialomita",
    "auto": "IL",
    "zip": 927243,
    "populatie": 459,
    "lat": 44.709561,
    "lng": 27.5741799
  },
  {
    "id": 13801,
    "nume": "Valea Macrisului",
    "diacritice": "Valea M\u0103cri\u015fului",
    "judet": "Ialomita",
    "auto": "IL",
    "zip": 927245,
    "populatie": 1312,
    "lat": 44.7413588,
    "lng": 26.8290884
  },
  {
    "id": 13802,
    "nume": "Grindasi",
    "diacritice": "Grinda\u015fi",
    "judet": "Ialomita",
    "auto": "IL",
    "zip": 927246,
    "populatie": 580,
    "lat": 44.7286154,
    "lng": 26.8400895
  },
  {
    "id": 13803,
    "nume": "Vladeni",
    "diacritice": "Vl\u0103deni",
    "judet": "Ialomita",
    "auto": "IL",
    "zip": 927250,
    "populatie": 2156,
    "lat": 44.6078766,
    "lng": 27.8472247
  },
  {
    "id": 13804,
    "nume": "Bucharest",
    "diacritice": "Bucure\u0219ti",
    "judet": "Bucuresti",
    "auto": "B",
    "zip": 10164,
    "populatie": 0,
    "lat": 44.4267674,
    "lng": 26.1025384
  },
  {
    "id": 13805,
    "nume": "Alexandria",
    "diacritice": "Alexandria",
    "judet": "Teleorman",
    "auto": "TR",
    "zip": 140002,
    "populatie": 45434,
    "lat": 43.97505719999999,
    "lng": 25.3282579
  },
  {
    "id": 13806,
    "nume": "Arad",
    "diacritice": "Arad",
    "judet": "Arad",
    "auto": "AR",
    "zip": 310001,
    "populatie": 159074,
    "lat": 46.1865606,
    "lng": 21.3122677
  },
  {
    "id": 13807,
    "nume": "Bacau",
    "diacritice": "Bac\u0103u",
    "judet": "Bacau",
    "auto": "BC",
    "zip": 600001,
    "populatie": 144307,
    "lat": 46.5670437,
    "lng": 26.9145748
  },
  {
    "id": 13808,
    "nume": "Baia Mare",
    "diacritice": "Baia Mare",
    "judet": "Maramures",
    "auto": "MM",
    "zip": 430011,
    "populatie": 122660,
    "lat": 47.6567387,
    "lng": 23.5849881
  },
  {
    "id": 13809,
    "nume": "Barlad",
    "diacritice": "B\u00e2rlad",
    "judet": "Vaslui",
    "auto": "VS",
    "zip": 731001,
    "populatie": 55837,
    "lat": 46.2276613,
    "lng": 27.6692265
  },
  {
    "id": 13810,
    "nume": "Bistrita",
    "diacritice": "Bistri\u0163a",
    "judet": "Bistrita-Nasaud",
    "auto": "BN",
    "zip": 420008,
    "populatie": 67272,
    "lat": 47.1392617,
    "lng": 24.4890979
  },
  {
    "id": 13811,
    "nume": "Botosani",
    "diacritice": "Boto\u015fani",
    "judet": "Botosani",
    "auto": "BT",
    "zip": 710001,
    "populatie": 106847,
    "lat": 47.7406537,
    "lng": 26.6658127
  },
  {
    "id": 13812,
    "nume": "Braila",
    "diacritice": "Br\u0103ila",
    "judet": "Braila",
    "auto": "BR",
    "zip": 810001,
    "populatie": 180302,
    "lat": 45.2652463,
    "lng": 27.9594714
  },
  {
    "id": 13813,
    "nume": "Brasov",
    "diacritice": "Bra\u015fov",
    "judet": "Brasov",
    "auto": "BV",
    "zip": 500470,
    "populatie": 252814,
    "lat": 45.6579755,
    "lng": 25.6011977
  },
  {
    "id": 13814,
    "nume": "Buzau",
    "diacritice": "Buz\u0103u",
    "judet": "Buzau",
    "auto": "BZ",
    "zip": 120001,
    "populatie": 115494,
    "lat": 45.1371109,
    "lng": 26.8171122
  },
  {
    "id": 13815,
    "nume": "Calarasi",
    "diacritice": "C\u0103l\u0103ra\u015fi",
    "judet": "Calarasi",
    "auto": "CL",
    "zip": 910001,
    "populatie": 65181,
    "lat": 44.2085144,
    "lng": 27.3137439
  },
  {
    "id": 13816,
    "nume": "Cluj-Napoca",
    "diacritice": "Cluj-Napoca",
    "judet": "Cluj",
    "auto": "CJ",
    "zip": 400335,
    "populatie": 324576,
    "lat": 46.7712101,
    "lng": 23.6236353
  },
  {
    "id": 13817,
    "nume": "Constanta",
    "diacritice": "Constan\u0163a",
    "judet": "Constanta",
    "auto": "CT",
    "zip": 900657,
    "populatie": 278742,
    "lat": 44.1598013,
    "lng": 28.6348138
  },
  {
    "id": 13818,
    "nume": "Craiova",
    "diacritice": "Craiova",
    "judet": "Dolj",
    "auto": "DJ",
    "zip": 200502,
    "populatie": 258340,
    "lat": 44.3301785,
    "lng": 23.7948807
  },
  {
    "id": 13819,
    "nume": "Deva",
    "diacritice": "Deva",
    "judet": "Hunedoara",
    "auto": "HD",
    "zip": 330005,
    "populatie": 58860,
    "lat": 45.86625739999999,
    "lng": 22.9143737
  },
  {
    "id": 13820,
    "nume": "Drobeta-Turnu Severin",
    "diacritice": "Drobeta-Turnu Severin",
    "judet": "Mehedinti",
    "auto": "MH",
    "zip": 220004,
    "populatie": 84876,
    "lat": 44.6369227,
    "lng": 22.6597342
  },
  {
    "id": 13821,
    "nume": "Focsani",
    "diacritice": "Foc\u015fani",
    "judet": "Vrancea",
    "auto": "VN",
    "zip": 620003,
    "populatie": 77313,
    "lat": 45.69647450000001,
    "lng": 27.184043
  },
  {
    "id": 13822,
    "nume": "Galati",
    "diacritice": "Gala\u0163i",
    "judet": "Galati",
    "auto": "GL",
    "zip": 800001,
    "populatie": 249432,
    "lat": 45.4353208,
    "lng": 28.0079945
  },
  {
    "id": 13823,
    "nume": "Giurgiu",
    "diacritice": "Giurgiu",
    "judet": "Giurgiu",
    "auto": "GR",
    "zip": 80303,
    "populatie": 61353,
    "lat": 43.9037076,
    "lng": 25.9699265
  },
  {
    "id": 13824,
    "nume": "Hunedoara",
    "diacritice": "Hunedoara",
    "judet": "Hunedoara",
    "auto": "HD",
    "zip": 331006,
    "populatie": 57885,
    "lat": 45.7678128,
    "lng": 22.9072331
  },
  {
    "id": 13825,
    "nume": "Iasi",
    "diacritice": "Ia\u015fi",
    "judet": "Iasi",
    "auto": "IS",
    "zip": 700020,
    "populatie": 290422,
    "lat": 47.1584549,
    "lng": 27.6014418
  },
  {
    "id": 13826,
    "nume": "Medias",
    "diacritice": "Media\u015f",
    "judet": "Sibiu",
    "auto": "SB",
    "zip": 551002,
    "populatie": 45879,
    "lat": 46.1572828,
    "lng": 24.3471665
  },
  {
    "id": 13827,
    "nume": "Miercurea-Ciuc",
    "diacritice": "Miercurea-Ciuc",
    "judet": "Harghita",
    "auto": "HR",
    "zip": 530100,
    "populatie": 37176,
    "lat": 46.3695574,
    "lng": 25.7953655
  },
  {
    "id": 13828,
    "nume": "Onesti",
    "diacritice": "One\u015fti",
    "judet": "Bacau",
    "auto": "BC",
    "zip": 601003,
    "populatie": 37717,
    "lat": 46.2647012,
    "lng": 26.782587
  },
  {
    "id": 13829,
    "nume": "Oradea",
    "diacritice": "Oradea",
    "judet": "Bihor",
    "auto": "BH",
    "zip": 410001,
    "populatie": 196367,
    "lat": 47.04650050000001,
    "lng": 21.9189438
  },
  {
    "id": 13830,
    "nume": "Petrosani",
    "diacritice": "Petro\u015fani",
    "judet": "Hunedoara",
    "auto": "HD",
    "zip": 332005,
    "populatie": 36506,
    "lat": 45.4088946,
    "lng": 23.3754021
  },
  {
    "id": 13831,
    "nume": "Piatra-Neamt",
    "diacritice": "Piatra-Neam\u0163",
    "judet": "Neamt",
    "auto": "NT",
    "zip": 610004,
    "populatie": 82375,
    "lat": 46.9299616,
    "lng": 26.3779793
  },
  {
    "id": 13832,
    "nume": "Pitesti",
    "diacritice": "Pite\u015fti",
    "judet": "Arges",
    "auto": "AG",
    "zip": 110001,
    "populatie": 155383,
    "lat": 44.8564798,
    "lng": 24.8691824
  }
]
